0 SL-8 R/B
1 08646U 76011B   13282.15119845  .00000144  00000-0  13754-3 0  3276
2 08646 082.9695 244.1554 0007139 091.6659 036.0515 13.73749224888631
0 SL-8 R/B
1 08646U 76011B   13283.46395748  .00000109  00000-0  10028-3 0  3282
2 08646 082.9696 243.1886 0007120 088.6707 047.6341 13.73749649888815
0 SL-8 R/B
1 08646U 76011B   13286.08207172  .00000082  00000-0  71343-4 0  3307
2 08646 082.9702 241.2604 0007107 082.7488 034.1433 13.73750131889177
0 SL-8 R/B
1 08646U 76011B   13287.47048606  .00000089  00000-0  78850-4 0  3314
2 08646 082.9705 240.2379 0007092 079.5681 059.8596 13.73750246889362
0 SL-8 R/B
1 08646U 76011B   13288.48996528  .00000121  00000-0  11356-3 0  3326
2 08646 082.9708 239.4871 0007025 077.2031 061.2208 13.73750457889509
0 SL-8 R/B
1 08646U 76011B   13289.49501505  .00000118  00000-0  10955-3 0  3336
2 08646 082.9710 238.7470 0006996 074.9642 351.1361 13.73750656889644
0 SL-8 R/B
1 08646U 76011B   13290.51125442  .00000134  00000-0  12742-3 0  3348
2 08646 082.9711 237.9988 0006977 072.6674 336.4165 13.73750716889789
0 SL-8 R/B
1 08646U 76011B   13292.18859388  .00000147  00000-0  14121-3 0  3354
2 08646 082.9713 236.7640 0006936 068.8706 350.8288 13.73750945890019
0 SL-8 R/B
1 08646U 76011B   13293.44290118  .00000135  00000-0  12799-3 0  3361
2 08646 082.9713 235.8406 0006859 065.9438 073.4423 13.73751246890185
0 SL-8 R/B
1 08646U 76011B   13294.51646034  .00000131  00000-0  12432-3 0  3373
2 08646 082.9713 235.0503 0006823 063.4494 342.2377 13.73751569890331
0 SL-8 R/B
1 08646U 76011B   13295.82959976  .00000124  00000-0  11595-3 0  3382
2 08646 082.9713 234.0836 0006761 060.3760 355.7910 13.73751915890519
